STARLINK-5141           
1 55500U 23015BD  26074.25001157  .00059752  00000+0  30610-2 0  9995
2 55500  43.0000 307.7615 0002323 254.0644  52.6414 15.15774427  5839
STARLINK-5367           
1 55501U 23015BE  26074.25001157  .00499742  00000+0  25358-1 0  9995
2 55501  43.0005 307.7325 0001275 261.5277  54.3050 15.14181623  5837
STARLINK-5749           
1 55569U 23020A   26074.25001157  .00064769  00000+0  44962-2 0  9995
2 55569  43.0001 334.7790 0000545 320.6206 327.7342 15.04721053  5771
STARLINK-5737           
1 55570U 23020B   26074.25001157  .01066649  00000+0  43909-1 0  9996
2 55570  42.9999 333.7298 0001829 291.8793  80.3182 15.20840728  5778
STARLINK-5739           
1 55571U 23020C   26073.79569628  .00004110  00000+0  31905-3 0  9996
2 55571  43.0066 337.2203 0001038 267.4126  92.6598 15.02545644169689
STARLINK-5732           
1 55572U 23020D   26073.79118275  .00016178  00000+0  12069-2 0  9991
2 55572  43.0047 337.1875 0001068 152.8263 207.2636 15.02629932169685
STARLINK-5738           
1 55573U 23020E   26074.25001157  .00064535  00000+0  44703-2 0  9994
2 55573  43.0004 334.6855 0001067 289.4139  35.8911 15.04803359  5675
STARLINK-5747           
1 55574U 23020F   26073.78238259  .00000956  00000+0  85779-4 0  9994
2 55574  43.0005 337.1089 0000917 197.5621 162.5189 15.02551619169686
STARLINK-5745           
1 55575U 23020G   26074.05380113 -.00249092  00000+0 -19210-1 0  9995
2 55575  43.0039 335.7137 0002328 276.2260  83.8317 15.02291167169726
STARLINK-5751           
1 55576U 23020H   26074.25001157  .01306682  00000+0  57543-1 0  9995
2 55576  42.9992 307.6674 0001902 298.6761 101.8419 15.18397457  5682
STARLINK-5752           
1 55577U 23020J   26074.25001157  .00103865  00000+0  47598-2 0  9993
2 55577  42.9992 333.4923 0001408 283.0401 160.4258 15.19385320  5732
STARLINK-5754           
1 55579U 23020L   26074.25001157  .01239994  00000+0  52078-1 0  9997
2 55579  42.9993 333.5821 0001739 297.0297 135.1120 15.19711491  5771
STARLINK-5757           
1 55580U 23020M   26074.25001157  .01289811  00000+0  60049-1 0  9999
2 55580  43.0009 307.7853 0002031 283.8110  65.9459 15.16487575  5779
STARLINK-5753           
1 55581U 23020N   26073.97845450  .00002155  00000+0  17439-3 0  9990
2 55581  43.0079 336.0082 0001563 282.8516  77.2152 15.02573979169714
STARLINK-5741           
1 55582U 23020P   26074.25001157  .00082170  00000+0  51718-2 0  9993
2 55582  43.0012 321.6452 0002474 264.3362  92.1753 15.08228550  5674
STARLINK-5742           
1 55583U 23020Q   26074.25001157  .00917166  00000+0  34628-1 0  9996
2 55583  43.0021 333.2856 0001708 269.2958 290.7245 15.23752867  5780
