[{"OBJECT_NAME":"STARLINK-5141","OBJECT_ID":"2023-015BD","EPOCH":"2026-03-15T06:00:00.999648","MEAN_MOTION":15.15774427,"ECCENTRICITY":0.00023237,"INCLINATION":43,"RA_OF_ASC_NODE":307.7615,"ARG_OF_PERICENTER":254.0644,"MEAN_ANOMALY":52.6414,"EPHEMERIS_TYPE":0,"CLASSIFICATION_TYPE":"U","NORAD_CAT_ID":55500,"ELEMENT_SET_NO":999,"REV_AT_EPOCH":583,"BSTAR":0.0030610074,"MEAN_MOTION_DOT":0.00059752,"MEAN_MOTION_DDOT":0},{"OBJECT_NAME":"STARLINK-5367","OBJECT_ID":"2023-015BE","EPOCH":"2026-03-15T06:00:00.999648","MEAN_MOTION":15.14181623,"ECCENTRICITY":0.00012751,"INCLINATION":43.0005,"RA_OF_ASC_NODE":307.7325,"ARG_OF_PERICENTER":261.5277,"MEAN_ANOMALY":54.305,"EPHEMERIS_TYPE":0,"CLASSIFICATION_TYPE":"U","NORAD_CAT_ID":55501,"ELEMENT_SET_NO":999,"REV_AT_EPOCH":583,"BSTAR":0.025357776,"MEAN_MOTION_DOT":0.00499742,"MEAN_MOTION_DDOT":0},{"OBJECT_NAME":"STARLINK-5749","OBJECT_ID":"2023-020A","EPOCH":"2026-03-15T06:00:00.999648","MEAN_MOTION":15.04721053,"ECCENTRICITY":5.452e-5,"INCLINATION":43.0001,"RA_OF_ASC_NODE":334.779,"ARG_OF_PERICENTER":320.6206,"MEAN_ANOMALY":327.7342,"EPHEMERIS_TYPE":0,"CLASSIFICATION_TYPE":"U","NORAD_CAT_ID":55569,"ELEMENT_SET_NO":999,"REV_AT_EPOCH":577,"BSTAR":0.0044961963,"MEAN_MOTION_DOT":0.00064769,"MEAN_MOTION_DDOT":0},{"OBJECT_NAME":"STARLINK-5737","OBJECT_ID":"2023-020B","EPOCH":"2026-03-15T06:00:00.999648","MEAN_MOTION":15.20840728,"ECCENTRICITY":0.00018294,"INCLINATION":42.9999,"RA_OF_ASC_NODE":333.7298,"ARG_OF_PERICENTER":291.8793,"MEAN_ANOMALY":80.3182,"EPHEMERIS_TYPE":0,"CLASSIFICATION_TYPE":"U","NORAD_CAT_ID":55570,"ELEMENT_SET_NO":999,"REV_AT_EPOCH":577,"BSTAR":0.043909343,"MEAN_MOTION_DOT":0.01066649,"MEAN_MOTION_DDOT":0},{"OBJECT_NAME":"STARLINK-5739","OBJECT_ID":"2023-020C","EPOCH":"2026-03-14T19:05:48.158592","MEAN_MOTION":15.02545644,"ECCENTRICITY":0.00010386,"INCLINATION":43.0066,"RA_OF_ASC_NODE":337.2203,"ARG_OF_PERICENTER":267.4126,"MEAN_ANOMALY":92.6598,"EPHEMERIS_TYPE":0,"CLASSIFICATION_TYPE":"U","NORAD_CAT_ID":55571,"ELEMENT_SET_NO":999,"REV_AT_EPOCH":16968,"BSTAR":0.00031905397,"MEAN_MOTION_DOT":4.11e-5,"MEAN_MOTION_DDOT":0},{"OBJECT_NAME":"STARLINK-5732","OBJECT_ID":"2023-020D","EPOCH":"2026-03-14T18:59:18.189600","MEAN_MOTION":15.02629932,"ECCENTRICITY":0.00010687,"INCLINATION":43.0047,"RA_OF_ASC_NODE":337.1875,"ARG_OF_PERICENTER":152.8263,"MEAN_ANOMALY":207.2636,"EPHEMERIS_TYPE":0,"CLASSIFICATION_TYPE":"U","NORAD_CAT_ID":55572,"ELEMENT_SET_NO":999,"REV_AT_EPOCH":16968,"BSTAR":0.0012069087,"MEAN_MOTION_DOT":0.00016178,"MEAN_MOTION_DDOT":0},{"OBJECT_NAME":"STARLINK-5738","OBJECT_ID":"2023-020E","EPOCH":"2026-03-15T06:00:00.999648","MEAN_MOTION":15.04803359,"ECCENTRICITY":0.00010674,"INCLINATION":43.0004,"RA_OF_ASC_NODE":334.6855,"ARG_OF_PERICENTER":289.4139,"MEAN_ANOMALY":35.8911,"EPHEMERIS_TYPE":0,"CLASSIFICATION_TYPE":"U","NORAD_CAT_ID":55573,"ELEMENT_SET_NO":999,"REV_AT_EPOCH":567,"BSTAR":0.0044703071,"MEAN_MOTION_DOT":0.00064535,"MEAN_MOTION_DDOT":0},{"OBJECT_NAME":"STARLINK-5747","OBJECT_ID":"2023-020F","EPOCH":"2026-03-14T18:46:37.855776","MEAN_MOTION":15.02551619,"ECCENTRICITY":9.179e-5,"INCLINATION":43.0005,"RA_OF_ASC_NODE":337.1089,"ARG_OF_PERICENTER":197.5621,"MEAN_ANOMALY":162.5189,"EPHEMERIS_TYPE":0,"CLASSIFICATION_TYPE":"U","NORAD_CAT_ID":55574,"ELEMENT_SET_NO":999,"REV_AT_EPOCH":16968,"BSTAR":8.5778778e-5,"MEAN_MOTION_DOT":9.56e-6,"MEAN_MOTION_DDOT":0},{"OBJECT_NAME":"STARLINK-5745","OBJECT_ID":"2023-020G","EPOCH":"2026-03-15T01:17:28.417632","MEAN_MOTION":15.02291167,"ECCENTRICITY":0.00023283,"INCLINATION":43.0039,"RA_OF_ASC_NODE":335.7137,"ARG_OF_PERICENTER":276.226,"MEAN_ANOMALY":83.8317,"EPHEMERIS_TYPE":0,"CLASSIFICATION_TYPE":"U","NORAD_CAT_ID":55575,"ELEMENT_SET_NO":999,"REV_AT_EPOCH":16972,"BSTAR":-0.019209536,"MEAN_MOTION_DOT":-0.00249092,"MEAN_MOTION_DDOT":0},{"OBJECT_NAME":"STARLINK-5751","OBJECT_ID":"2023-020H","EPOCH":"2026-03-15T06:00:00.999648","MEAN_MOTION":15.18397457,"ECCENTRICITY":0.00019023,"INCLINATION":42.9992,"RA_OF_ASC_NODE":307.6674,"ARG_OF_PERICENTER":298.6761,"MEAN_ANOMALY":101.8419,"EPHEMERIS_TYPE":0,"CLASSIFICATION_TYPE":"U","NORAD_CAT_ID":55576,"ELEMENT_SET_NO":999,"REV_AT_EPOCH":568,"BSTAR":0.057543156,"MEAN_MOTION_DOT":0.01306682,"MEAN_MOTION_DDOT":0},{"OBJECT_NAME":"STARLINK-5752","OBJECT_ID":"2023-020J","EPOCH":"2026-03-15T06:00:00.999648","MEAN_MOTION":15.1938532,"ECCENTRICITY":0.00014085,"INCLINATION":42.9992,"RA_OF_ASC_NODE":333.4923,"ARG_OF_PERICENTER":283.0401,"MEAN_ANOMALY":160.4258,"EPHEMERIS_TYPE":0,"CLASSIFICATION_TYPE":"U","NORAD_CAT_ID":55577,"ELEMENT_SET_NO":999,"REV_AT_EPOCH":573,"BSTAR":0.0047597823,"MEAN_MOTION_DOT":0.00103865,"MEAN_MOTION_DDOT":0},{"OBJECT_NAME":"STARLINK-5754","OBJECT_ID":"2023-020L","EPOCH":"2026-03-15T06:00:00.999648","MEAN_MOTION":15.19711491,"ECCENTRICITY":0.00017396,"INCLINATION":42.9993,"RA_OF_ASC_NODE":333.5821,"ARG_OF_PERICENTER":297.0297,"MEAN_ANOMALY":135.112,"EPHEMERIS_TYPE":0,"CLASSIFICATION_TYPE":"U","NORAD_CAT_ID":55579,"ELEMENT_SET_NO":999,"REV_AT_EPOCH":577,"BSTAR":0.05207827,"MEAN_MOTION_DOT":0.01239994,"MEAN_MOTION_DDOT":0},{"OBJECT_NAME":"STARLINK-5757","OBJECT_ID":"2023-020M","EPOCH":"2026-03-15T06:00:00.999648","MEAN_MOTION":15.16487575,"ECCENTRICITY":0.00020315,"INCLINATION":43.0009,"RA_OF_ASC_NODE":307.7853,"ARG_OF_PERICENTER":283.811,"MEAN_ANOMALY":65.9459,"EPHEMERIS_TYPE":0,"CLASSIFICATION_TYPE":"U","NORAD_CAT_ID":55580,"ELEMENT_SET_NO":999,"REV_AT_EPOCH":577,"BSTAR":0.06004924,"MEAN_MOTION_DOT":0.01289811,"MEAN_MOTION_DDOT":0},{"OBJECT_NAME":"STARLINK-5753","OBJECT_ID":"2023-020N","EPOCH":"2026-03-14T23:28:58.468800","MEAN_MOTION":15.02573979,"ECCENTRICITY":0.00015635,"INCLINATION":43.0079,"RA_OF_ASC_NODE":336.0082,"ARG_OF_PERICENTER":282.8516,"MEAN_ANOMALY":77.2152,"EPHEMERIS_TYPE":0,"CLASSIFICATION_TYPE":"U","NORAD_CAT_ID":55581,"ELEMENT_SET_NO":999,"REV_AT_EPOCH":16971,"BSTAR":0.00017439189,"MEAN_MOTION_DOT":2.155e-5,"MEAN_MOTION_DDOT":0},{"OBJECT_NAME":"STARLINK-5741","OBJECT_ID":"2023-020P","EPOCH":"2026-03-15T06:00:00.999648","MEAN_MOTION":15.0822855,"ECCENTRICITY":0.00024747,"INCLINATION":43.0012,"RA_OF_ASC_NODE":321.6452,"ARG_OF_PERICENTER":264.3362,"MEAN_ANOMALY":92.1753,"EPHEMERIS_TYPE":0,"CLASSIFICATION_TYPE":"U","NORAD_CAT_ID":55582,"ELEMENT_SET_NO":999,"REV_AT_EPOCH":567,"BSTAR":0.0051717858,"MEAN_MOTION_DOT":0.0008217,"MEAN_MOTION_DDOT":0},{"OBJECT_NAME":"STARLINK-5742","OBJECT_ID":"2023-020Q","EPOCH":"2026-03-15T06:00:00.999648","MEAN_MOTION":15.23752867,"ECCENTRICITY":0.00017084,"INCLINATION":43.0021,"RA_OF_ASC_NODE":333.2856,"ARG_OF_PERICENTER":269.2958,"MEAN_ANOMALY":290.7245,"EPHEMERIS_TYPE":0,"CLASSIFICATION_TYPE":"U","NORAD_CAT_ID":55583,"ELEMENT_SET_NO":999,"REV_AT_EPOCH":578,"BSTAR":0.034627826,"MEAN_MOTION_DOT":0.00917166,"MEAN_MOTION_DDOT":0}]
